IRIDIUM 171             
1 43929U 19002H   25143.50415583  .00000097  00000+0  27633-4 0  9995
2 43929  86.3987 156.7312 0002649  86.1951 273.9548 14.34217774333104
IRIDIUM 170             
1 43930U 19002J   25143.50631696  .00000342  00000+0  50392-4 0  9993
2 43930  86.6104 156.4899 0002838  96.8532 263.3008 14.72257613341921
IRIDIUM 167             
1 43931U 19002K   25143.49781292  .00000057  00000+0  13342-4 0  9997
2 43931  86.3977 156.4898 0002817  90.6309 269.5210 14.34217721333105
IRIDIUM 181             
1 56726U 23068S   25143.47527287  .00000323  00000+0  90091-4 0  9992
2 56726  86.4543 219.5463 0002631  81.5519 278.5980 14.43313369106226
IRIDIUM 177             
1 56727U 23068T   25143.53172175  .00000474  00000+0  58881-4 0  9990
2 56727  86.1972 153.8295 0002737  88.0462 272.1072 14.80228752108720
IRIDIUM 174             
1 56728U 23068U   25143.49398199  .00000376  00000+0  55778-4 0  9995
2 56728  86.6112 156.6025 0002059  96.7603 263.3849 14.72271203108683
IRIDIUM 178             
1 56729U 23068V   25143.52080646  .00001009  00000+0  12937-3 0  9998
2 56729  86.6585 188.1230 0002217  91.9280 268.2195 14.80241345108726
IRIDIUM 179             
1 56730U 23068W   25143.51544053  .00001326  00000+0  17117-3 0  9993
2 56730  86.6825 195.9204 0002476  94.9898 265.1606 14.80219341108721
